NORAD_CAT_ID,OBJECT_NAME,OBJECT_TYPE,EPOCH,MEAN_MOTION,ECCENTRICITY,INCLINATION,RA_OF_ASC_NODE,ARG_OF_PERICENTER,MEAN_ANOMALY,BSTAR,MEAN_MOTION_DOT,MEAN_MOTION_DDOT,TLE_LINE0,TLE_LINE1,TLE_LINE2,SEMIMAJOR_AXIS,PERIOD,APOGEE,PERIGEE,DECAYED
54192.0,STARLINK-5268,PAYLOAD,2022-12-16 22:00:00,15.7316455,0.0003235,53.2137,257.0678,15.8062,28.5277,5.177800000000001e-05,6.64e-05,0.0,0 STARLINK-5268,1 54192U 22141AM  22350.91667824  .00006640  00000-0  51778-4 0  9994,2 54192  53.2137 257.0678 0003235  15.8062  28.5277 15.73164550  1306,6727.996,91.535,352.038,347.685,0.0
54192.0,STARLINK-5268,PAYLOAD,2022-12-16 23:20:16,15.73193832,0.0003376,53.2147,256.7918,12.0887,348.0214,-2.065e-05,-3.521e-05,0.0,0 STARLINK-5268,1 54192U 22141AM  22350.97240977 -.00003521  00000-0 -20650-4 0  9998,2 54192  53.2147 256.7918 0003376  12.0887 348.0214 15.73193832  8123,6727.913000000001,91.534,352.0490000000001,347.506,0.0
54192.0,STARLINK-5268,PAYLOAD,2022-12-17 03:54:43,15.73177613,0.0003471,53.2146,255.8491,16.2564,343.8567,-4.2284e-05,-6.55e-05,0.0,0 STARLINK-5268,1 54192U 22141AM  22351.16300427 -.00006550  00000-0 -42284-4 0  9999,2 54192  53.2146 255.8491 0003471  16.2564 343.8567 15.73177613  7922,6727.959,91.534,352.159,347.48900000000015,0.0
54192.0,STARLINK-5268,PAYLOAD,2022-12-17 17:38:02,15.73190039,0.0003273,53.2147,253.0192,13.2041,346.9064,-1.7468e-05,-3.074e-05,0.0,0 STARLINK-5268,1 54192U 22141AM  22351.73475387 -.00003074  00000-0 -17468-4 0  9994,2 54192  53.2147 253.0192 0003273  13.2041 346.9064 15.73190039  8247,6727.924,91.534,351.991,347.587,0.0
54192.0,STARLINK-5268,PAYLOAD,2022-12-18 02:46:55,15.73191274,0.0003246,53.2147,251.1326,18.0246,342.0889,-2.1325e-06,-9.23e-06,0.0,0 STARLINK-5268,1 54192U 22141AM  22352.11592531 -.00000923  00000-0 -21325-5 0  9996,2 54192  53.2147 251.1326 0003246  18.0246 342.0889 15.73191274  8070,6727.92,91.534,351.969,347.601,0.0
54192.0,STARLINK-5268,PAYLOAD,2022-12-18 18:01:42,15.73225298,0.0003153,53.2148,247.9884,11.9994,348.1101,7.1069e-05,9.375e-05,0.0,0 STARLINK-5268,1 54192U 22141AM  22352.75118488  .00009375  00000-0  71069-4 0  9998,2 54192  53.2148 247.9884 0003153  11.9994 348.1101 15.73225298  8407,6727.823,91.532,351.809,347.56699999999995,0.0
54192.0,STARLINK-5268,PAYLOAD,2022-12-19 01:39:05,15.73230797,0.0003157,53.2144,246.4163,16.8848,343.2276,8.6374e-05,0.00011534,0.0,0 STARLINK-5268,1 54192U 22141AM  22353.06881939  .00011534  00000-0  86374-4 0  9996,2 54192  53.2144 246.4163 0003157  16.8848 343.2276 15.73230797  8222,6727.807,91.531,351.796,347.548,0.0
54192.0,STARLINK-5268,PAYLOAD,2022-12-19 16:53:53,15.73225725,0.0002746,53.2152,243.2709,20.3258,339.7871,3.2536e-05,3.951e-05,0.0,0 STARLINK-5268,1 54192U 22141AM  22353.70409710  .00003951  00000-0  32536-4 0  9995,2 54192  53.2152 243.2709 0002746  20.3258 339.7871 15.73225725  8552,6727.821999999999,91.532,351.534,347.839,0.0
54192.0,STARLINK-5268,PAYLOAD,2022-12-20 02:02:45,15.73238447,0.0002856,53.2149,241.3851,17.1654,342.9463,4.263e-05,5.375e-05,0.0,0 STARLINK-5268,1 54192U 22141AM  22354.08525228  .00005375  00000-0  42630-4 0  9998,2 54192  53.2149 241.3851 0002856  17.1654 342.9463 15.73238447  8616,6727.786,91.531,351.57199999999995,347.72900000000016,0.0
54192.0,STARLINK-5268,PAYLOAD,2022-12-20 09:40:09,15.73230422,0.0003119,53.2148,239.8143,16.8973,343.2151,1.268e-05,1.159e-05,0.0,0 STARLINK-5268,1 54192U 22141AM  22354.40289030  .00001159  00000-0  12680-4 0  9990,2 54192  53.2148 239.8143 0003119  16.8973 343.2151 15.73230422  8662,6727.808000000001,91.531,351.772,347.575,0.0
54192.0,STARLINK-5268,PAYLOAD,2022-12-20 17:17:30,15.73305722,0.0004084,53.2147,238.2426,14.2262,345.8872,0.00015844,0.00021779,0.0,0 STARLINK-5268,1 54192U 22141AM  22354.72048915  .00021779  00000-0  15844-3 0  9994,2 54192  53.2147 238.2426 0004084  14.2262 345.8872 15.73305722  8713,6727.594,91.527,352.206,346.711,0.0
54192.0,STARLINK-5268,PAYLOAD,2022-12-20 23:23:28,15.73206571,0.0003431,53.2145,236.9856,14.1017,346.0098,-4.5835e-05,-7.055e-05,0.0,0 STARLINK-5268,1 54192U 22141AM  22354.97464095 -.00007055  00000-0 -45835-4 0  9999,2 54192  53.2145 236.9856 0003431  14.1017 346.0098 15.73206571  8754,6727.876,91.533,352.05,347.43300000000005,0.0
54192.0,STARLINK-5268,PAYLOAD,2022-12-21 03:57:56,15.73183809,0.0003185,53.2146,236.0423,17.0094,343.1033,-8.3886e-05,-0.00012374,0.0,0 STARLINK-5268,1 54192U 22141AM  22355.16523209 -.00012374  00000-0 -83886-4 0  9992,2 54192  53.2146 236.0423 0003185  17.0094 343.1033 15.73183809  8787,6727.941,91.534,351.949,347.663,0.0
54192.0,STARLINK-5268,PAYLOAD,2022-12-21 16:09:48,15.73157727,0.0002928,53.2144,233.5274,19.7143,340.399,-9.1581e-05,-0.00013434,0.0,0 STARLINK-5268,1 54192U 22141AM  22355.67347689 -.00013434  00000-0 -91581-4 0  9993,2 54192  53.2144 233.5274 0002928  19.7143 340.3990 15.73157727  8869,6728.016,91.536,351.851,347.911,0.0
54192.0,STARLINK-5268,PAYLOAD,2022-12-21 23:47:12,15.73180744,0.0002958,53.2148,231.9528,17.0239,343.0879,-2.019e-05,-3.453e-05,0.0,0 STARLINK-5268,1 54192U 22141AM  22355.99111472 -.00003453  00000-0 -20190-4 0  9995,2 54192  53.2148 231.9528 0002958  17.0239 343.0879 15.73180744  8914,6727.95,91.534,351.805,347.825,0.0
54192.0,STARLINK-5268,PAYLOAD,2022-12-22 08:56:04,15.73202568,0.0002952,53.2143,230.0687,10.4602,349.6479,4.246100000000001e-05,5.342e-05,0.0,0 STARLINK-5268,1 54192U 22141AM  22356.37227764  .00005342  00000-0  42461-4 0  9992,2 54192  53.2143 230.0687 0002952  10.4602 349.6479 15.73202568  8973,6727.888000000001,91.533,351.73900000000015,347.767,0.0
54192.0,STARLINK-5268,PAYLOAD,2022-12-22 21:07:55,15.73205426,0.0002642,53.2146,227.5534,12.56,347.5485,2.973e-05,3.553e-05,0.0,0 STARLINK-5268,1 54192U 22141AM  22356.88050175  .00003553  00000-0  29730-4 0  9994,2 54192  53.2146 227.5534 0002642  12.5600 347.5485 15.73205426  8829,6727.88,91.533,351.522,347.967,0.0
54192.0,STARLINK-5268,PAYLOAD,2022-12-22 22:39:24,15.73210567,0.0002951,53.2144,227.2401,10.4892,349.6189,4.2953e-05,5.413e-05,0.0,0 STARLINK-5268,1 54192U 22141AM  22356.94402799  .00005413  00000-0  42953-4 0  9993,2 54192  53.2144 227.2401 0002951  10.4892 349.6189 15.73210567  8837,6727.865,91.533,351.715,347.745,0.0
54192.0,STARLINK-5268,PAYLOAD,2022-12-23 16:57:11,15.7319581,0.0002912,53.2146,223.4669,13.7892,346.3207,2.6805e-05,3.141e-05,0.0,0 STARLINK-5268,1 54192U 22141AM  22357.70637947  .00003141  00000-0  26805-4 0  9997,2 54192  53.2146 223.4669 0002912  13.7892 346.3207 15.73195810  9183,6727.906999999997,91.533,351.731,347.81300000000016,0.0
54192.0,STARLINK-5268,PAYLOAD,2022-12-23 20:00:08,15.73197148,0.0002691,53.2142,222.8385,17.4813,342.63,2.8811e-05,3.423e-05,0.0,0 STARLINK-5268,1 54192U 22141AM  22357.83343549  .00003423  00000-0  28811-4 0  9995,2 54192  53.2142 222.8385 0002691  17.4813 342.6300 15.73197148  8970,6727.903,91.533,351.579,347.958,0.0
54192.0,STARLINK-5268,PAYLOAD,2022-12-24 00:34:34,15.73212054,0.0003051,53.2145,221.8954,15.2673,344.8438,4.818e-05,6.149e-05,0.0,0 STARLINK-5268,1 54192U 22141AM  22358.02401265  .00006149  00000-0  48180-4 0  9996,2 54192  53.2145 221.8954 0003051  15.2673 344.8438 15.73212054  9235,6727.861,91.532,351.778,347.673,0.0
54192.0,STARLINK-5268,PAYLOAD,2022-12-24 08:11:58,15.73221239,0.000296,53.2144,220.3234,17.5504,342.5618,9.5412e-05,0.00012803,0.0,0 STARLINK-5268,1 54192U 22141AM  22358.34164686  .00012803  00000-0  95412-4 0  9998,2 54192  53.2144 220.3234 0002960  17.5504 342.5618 15.73221239  9055,6727.835,91.532,351.691,347.708,0.0
54192.0,STARLINK-5268,PAYLOAD,2022-12-24 18:52:19,15.73204144,0.0001436,53.2141,218.1229,48.9562,311.1582,-9.9995e-06,-2.023e-05,0.0,0 STARLINK-5268,1 54192U 22141AM  22358.78634153 -.00002023  00000-0 -99995-5 0  9993,2 54192  53.2141 218.1229 0001436  48.9562 311.1582 15.73204144  9351,6727.8830000000025,91.533,350.714,348.782,0.0
54192.0,STARLINK-5268,PAYLOAD,2022-12-24 21:55:15,15.73253887,0.0003007,53.2146,217.4939,9.8823,350.2256,8.502e-05,0.00011355,0.0,0 STARLINK-5268,1 54192U 22141AM  22358.91337687  .00011355  00000-0  85020-4 0  9999,2 54192  53.2146 217.4939 0003007   9.8823 350.2256 15.73253887  9370,6727.7419999999975,91.53,351.63,347.584,0.0
54192.0,STARLINK-5268,PAYLOAD,2022-12-24 21:55:20,15.73142507,0.0003196,53.2146,217.4945,12.2741,347.8356,-0.00010852,-0.00015791,0.0,0 STARLINK-5268,1 54192U 22141AM  22358.91342847 -.00015791  00000-0 -10852-3 0  9993,2 54192  53.2146 217.4945 0003196  12.2741 347.8356 15.73142507  9147,6728.059,91.537,352.074,347.774,0.0
54192.0,STARLINK-5268,PAYLOAD,2022-12-25 17:44:30,15.73239893,0.0002916,53.2145,213.407,19.5052,340.6079,-2.2259e-05,-3.752e-05,0.0,0 STARLINK-5268,1 54192U 22141AM  22359.73924429 -.00003752  00000-0 -22259-4 0  9995,2 54192  53.2145 213.4070 0002916  19.5052 340.6079 15.73239893  9503,6727.781,91.531,351.608,347.685,0.0
54192.0,STARLINK-5268,PAYLOAD,2022-12-25 20:47:29,15.73205982,0.0003119,53.2144,212.7784,17.1251,342.9874,-1.9497e-05,-3.3600000000000004e-05,0.0,0 STARLINK-5268,1 54192U 22141AM  22359.86631696 -.00003360  00000-0 -19497-4 0  9995,2 54192  53.2144 212.7784 0003119  17.1251 342.9874 15.73205982  9293,6727.878000000002,91.533,351.842,347.645,0.0
54192.0,STARLINK-5268,PAYLOAD,2022-12-25 23:50:27,15.73207406,0.0003026,53.2143,212.1493,7.0952,353.0111,8.9639e-06,6.36e-06,0.0,0 STARLINK-5268,1 54192U 22141AM  22359.99337105  .00000636  00000-0  89639-5 0  9994,2 54192  53.2143 212.1493 0003026   7.0952 353.0111 15.73207406  9544,6727.874,91.533,351.775,347.70300000000015,0.0
54192.0,STARLINK-5268,PAYLOAD,2022-12-26 07:27:53,15.73126483,0.0004396,53.2145,210.5778,19.5474,340.5714,-0.00014471,-0.00020832,0.0,0 STARLINK-5268,1 54192U 22141AM  22360.31103491 -.00020832  00000-0 -14471-3 0  9993,2 54192  53.2145 210.5778 0004396  19.5474 340.5714 15.73126483  9592,6728.105,91.537,352.927,347.01199999999994,0.0
